0 FENGYUN 1C DEB
1 31271U 99025BND 13282.04039088  .00042932  00000-0  13190-2 0  5517
2 31271 099.1504 311.7943 0185643 130.7090 292.2262 15.18363050356987
0 FENGYUN 1C DEB
1 31271U 99025BND 13286.05425203  .00033830  00000-0  10365-2 0  5530
2 31271 099.1503 316.6478 0184720 117.4204 274.2938 15.18624755357597
0 FENGYUN 1C DEB
1 31271U 99025BND 13287.04277676  .00031278  00000-0  95817-3 0  5540
2 31271 099.1513 317.8444 0184510 114.1525 278.6884 15.18675855357743
0 FENGYUN 1C DEB
1 31271U 99025BND 13288.03695800  .00052536  00000-0  16015-2 0  5556
2 31271 099.1521 319.0483 0184171 110.8733 314.2259 15.18758271357899
0 FENGYUN 1C DEB
1 31271U 99025BND 13288.64073458  .00042716  00000-0  13031-2 0  5567
2 31271 099.1517 319.7788 0183982 108.8860 015.4275 15.18808201357983
0 FENGYUN 1C DEB
1 31271U 99025BND 13289.89254979  .00041324  00000-0  12586-2 0  5573
2 31271 099.1495 321.2921 0183744 104.7619 020.1912 15.18895866358174
0 FENGYUN 1C DEB
1 31271U 99025BND 13290.33122877  .00037740  00000-0  11492-2 0  5588
2 31271 099.1492 321.8228 0183713 103.2220 259.0103 15.18938520355497
0 FENGYUN 1C DEB
1 31271U 99025BND 13290.66060514  .00046237  00000-0  14099-2 0  5591
2 31271 099.1501 322.2210 0183258 102.1808 260.0553 15.18963132358297
0 FENGYUN 1C DEB
1 31271U 99025BND 13291.06537925  .00040511  00000-0  12322-2 0  5586
2 31271 099.1491 322.7116 0183389 100.8757 313.4399 15.18988848358357
0 FENGYUN 1C DEB
1 31271U 99025BND 13292.04945072  .00037053  00000-0  11260-2 0  5599
2 31271 099.1488 323.9024 0183225 097.6287 294.7981 15.19057398358507
0 FENGYUN 1C DEB
1 31271U 99025BND 13293.03753825  .00036537  00000-0  11089-2 0  5609
2 31271 099.1485 325.0979 0183067 094.3587 298.3689 15.19119913358650
0 FENGYUN 1C DEB
1 31271U 99025BND 13295.08491948  .00046978  00000-0  14202-2 0  5612
2 31271 099.1483 327.5754 0182510 087.5837 335.6607 15.19260875358963
0 FENGYUN 1C DEB
1 31271U 99025BND 13295.56254497  .00046089  00000-0  13931-2 0  5623
2 31271 099.1485 328.1535 0182375 086.0030 067.9792 15.19289429359032
